H1 CPF 01  gfz 2021 02 21 01  5521 tandemx   
H2 1003001  6202 36605    2021 02 21 00 59 42 2021 02 26 00 00 42   120 1 1  0 0 0
H9
10 0 59266  53262.000000  0   -2470766.313  -3802532.714   5175441.582
10 0 59266  53382.000000  0   -3002558.730  -4209258.053   4542331.933
10 0 59266  53502.000000  0   -3488272.025  -4533515.026   3829271.837
10 0 59266  53622.000000  0   -3917914.951  -4770507.211   3048791.872
10 0 59266  53742.000000  0   -4282409.793  -4917136.126   2214622.629
10 0 59266  53862.000000  0   -4573786.675  -4972043.529   1341451.093
10 0 59266  53982.000000  0   -4785358.507  -4935617.886    444656.569
10 0 59266  54102.000000  0   -4911871.838  -4809965.323   -459967.455
10 0 59266  54222.000000  0   -4949629.988  -4598845.703  -1356500.471
10 0 59266  54342.000000  0   -4896584.203  -4307574.718  -2229184.978
10 0 59266  54462.000000  0   -4752390.239  -3942894.197  -3062711.283
10 0 59266  54582.000000  0   -4518430.100  -3512815.768  -3842490.002
10 0 59266  54702.000000  0   -4197799.648  -3026442.864  -4554907.936
10 0 59266  54822.000000  0   -3795262.585  -2493774.800  -5187562.964
10 0 59266  54942.000000  0   -3317172.307  -1925498.245  -5729473.276
10 0 59266  55062.000000  0   -2771364.767  -1332771.182  -6171258.643
10 0 59266  55182.000000  0   -2167024.514   -727003.523  -6505292.159
10 0 59266  55302.000000  0   -1514525.986   -119639.128  -6725820.174
10 0 59266  55422.000000  0    -825255.080    478056.172  -6829049.445
10 0 59266  55542.000000  0    -111414.140   1055197.801  -6813205.168
10 0 59266  55662.000000  0     614188.739   1601475.457  -6678557.803
10 0 59266  55782.000000  0    1338363.035   2107332.243  -6427421.094
10 0 59266  55902.000000  0    2047771.100   2564129.607  -6064117.047
10 0 59266  56022.000000  0    2729169.370   2964294.182  -5594909.448
10 0 59266  56142.000000  0    3369652.438   3301443.716  -5027905.232
10 0 59266  56262.000000  0    3956896.750   3570491.956  -4372926.980
10 0 59266  56382.000000  0    4479400.858   3767729.843  -3641353.718
10 0 59266  56502.000000  0    4926716.275   3890880.135  -2845931.583
10 0 59266  56622.000000  0    5289662.151   3939124.069  -2000556.892
10 0 59266  56742.000000  0    5560520.328   3913099.740  -1120035.425
10 0 59266  56862.000000  0    5733204.862   3814870.330   -219821.040
10 0 59266  56982.000000  0    5803401.586   3647863.557    684260.013
10 0 59266  57102.000000  0    5768674.072   3416782.687   1576294.852
10 0 59266  57222.000000  0    5628531.338   3127490.902   2440572.869
10 0 59266  57342.000000  0    5384456.390   2786873.276   3261871.154
10 0 59266  57462.000000  0    5039894.312   2402678.549   4025730.854
10 0 59266  57582.000000  0    4600199.098   1983344.722   4718716.519
10 0 59266  57702.000000  0    4072545.175   1537814.719   5328652.433
10 0 59266  57822.000000  0    3465803.383   1075346.067   5844838.046
10 0 59266  57942.000000  0    2790381.573    605317.441   6258231.415
10 0 59266  58062.000000  0    2058039.583    137038.985   6561599.745
10 0 59266  58182.000000  0    1281681.483   -320430.403   6749640.441
10 0 59266  58302.000000  0     475125.482   -758457.693   6819070.169
10 0 59266  58422.000000  0    -347143.859  -1168998.184   6768677.846
10 0 59266  58542.000000  0   -1170235.523  -1544742.811   6599343.809
10 0 59266  58662.000000  0   -1979120.756  -1879248.414   6314024.051
10 0 59266  58782.000000  0   -2758905.172  -2167047.497   5917701.511
10 0 59266  58902.000000  0   -3495103.294  -2403738.593   5417307.455
10 0 59266  59022.000000  0   -4173913.057  -2586055.935   4821606.649
10 0 59266  59142.000000  0   -4782479.855  -2711914.952   4141047.939
10 0 59266  59262.000000  0   -5309146.302  -2780432.479   3387584.245
10 0 59266  59382.000000  0   -5743682.721  -2791921.900   2574465.125
10 0 59266  59502.000000  0   -6077494.438  -2747864.038   1716003.868
10 0 59266  59622.000000  0   -6303799.922  -2650854.123    827320.882
10 0 59266  59742.000000  0   -6417772.571  -2504523.284    -75930.267
10 0 59266  59862.000000  0   -6416644.935  -2313438.867   -977846.558
10 0 59266  59982.000000  0   -6299770.888  -2082985.064  -1862565.803
10 0 59266  60102.000000  0   -6068643.325  -1819227.702  -2714553.732
10 0 59266  60222.000000  0   -5726869.660  -1528766.760  -3518882.070
10 0 59266  60342.000000  0   -5280105.796  -1218580.574  -4261492.511
10 0 59266  60462.000000  0   -4735951.075   -895865.729  -4929441.264
10 0 59266  60582.000000  0   -4103807.044   -567876.078  -5511120.212
10 0 59266  60702.000000  0   -3394703.494   -241765.289  -5996450.233
10 0 59266  60822.000000  0   -2621097.618     75563.928  -6377044.497
10 0 59266  60942.000000  0   -1796650.892    377600.395  -6646341.370
10 0 59266  61062.000000  0    -935986.799    658352.151  -6799706.434
10 0 59266  61182.000000  0     -54434.854    912460.956  -6834502.994
10 0 59266  61302.000000  0     832235.503   1135301.115  -6750131.466
10 0 59266  61422.000000  0    1708089.444   1323060.739  -6548041.132
10 0 59266  61542.000000  0    2557307.734   1472806.503  -6231708.636
10 0 59266  61662.000000  0    3364467.738   1582529.150  -5806584.101
10 0 59266  61782.000000  0    4114819.789   1651169.050  -5280005.659
10 0 59266  61902.000000  0    4794556.760   1678622.397  -4661085.043
10 0 59266  62022.000000  0    5391073.121   1665727.607  -3960561.067
10 0 59266  62142.000000  0    5893205.826   1614231.208  -3190622.556
10 0 59266  62262.000000  0    6291453.036   1526733.929  -2364704.243
10 0 59266  62382.000000  0    6578166.572   1406618.342  -1497256.384
10 0 59266  62502.000000  0    6747710.618   1257958.742   -603491.125
10 0 59266  62622.000000  0    6796582.358   1085414.788    300888.664
10 0 59266  62742.000000  0    6723489.577    894112.792   1199971.763
10 0 59266  62862.000000  0    6529386.948    689516.791   2077925.916
10 0 59266  62982.000000  0    6217465.734    477291.737   2919286.961
10 0 59266  63102.000000  0    5793097.450    263163.641   3709238.833
10 0 59266  63222.000000  0    5263733.985     52779.719   4433880.863
10 0 59266  63342.000000  0    4638767.863   -148426.177   5080474.370
10 0 59266  63462.000000  0    3929355.783   -335362.754   5637668.129
10 0 59266  63582.000000  0    3148208.456   -503399.678   6095694.018
10 0 59266  63702.000000  0    2309355.173   -648472.461   6446533.048
10 0 59266  63822.000000  0    1427886.717   -767173.333   6684050.103
10 0 59266  63942.000000  0     519679.857   -856825.994   6804096.638
10 0 59266  64062.000000  0    -398890.938   -915542.468   6804577.704
10 0 59266  64182.000000  0   -1311248.197   -942261.687   6685485.141
10 0 59266  64302.000000  0   -2200909.322   -936768.705   6448897.148
10 0 59266  64422.000000  0   -3051782.610   -899694.092   6098944.133
10 0 59266  64542.000000  0   -3848458.752   -832493.786   5641742.826
10 0 59266  64662.000000  0   -4576494.211   -737410.541   5085296.229
10 0 59266  64782.000000  0   -5222679.969   -617416.963   4439359.222
10 0 59266  64902.000000  0   -5775289.328   -476140.915   3715271.443
10 0 59266  65022.000000  0   -6224299.304   -317774.892   2925760.483
10 0 59266  65142.000000  0   -6561582.361   -146971.216   2084719.560
10 0 59266  65262.000000  0   -6781064.165     31275.035   1206960.218
10 0 59266  65382.000000  0   -6878840.705    211751.422    307945.057
10 0 59266  65502.000000  0   -6853252.007    389159.411   -596493.077
10 0 59266  65622.000000  0   -6704909.984    558248.415  -1490439.381
10 0 59266  65742.000000  0   -6436679.898    713948.364  -2358184.878
10 0 59266  65862.000000  0   -6053619.566    851497.895  -3184508.771
10 0 59266  65982.000000  0   -5562873.329    966565.326  -3954951.969
10 0 59266  66102.000000  0   -4973524.836   1055358.634  -4656070.115
10 0 59266  66222.000000  0   -4296415.878   1114722.121  -5275664.472
10 0 59266  66342.000000  0   -3543935.287   1142217.697  -5802986.405
10 0 59266  66462.000000  0   -2729783.804   1136189.014  -6228913.704
10 0 59266  66582.000000  0   -1868719.928   1095807.376  -6546096.725
10 0 59266  66702.000000  0    -976290.945   1021100.500  -6749073.982
10 0 59266  66822.000000  0     -68554.932    912961.808  -6834354.899
10 0 59266  66942.000000  0     838200.752    773141.329  -6800472.670
10 0 59266  67062.000000  0    1727744.186    604217.910  -6648009.309
10 0 59266  67182.000000  0    2584183.942    409552.883  -6379586.827
10 0 59266  67302.000000  0    3392247.467    193226.532  -5999826.963
10 0 59266  67422.000000  0    4137550.261    -40042.728  -5515279.039
10 0 59266  67542.000000  0    4806850.903   -284995.043  -4934317.920
10 0 59266  67662.000000  0    5388291.288   -535939.813  -4267011.693
10 0 59266  67782.000000  0    5871614.728   -786879.221  -3524957.068
10 0 59266  67902.000000  0    6248357.165  -1031641.981  -2721086.378
10 0 59266  68022.000000  0    6512007.766  -1264024.941  -1869447.750
10 0 59266  68142.000000  0    6658134.246  -1477938.675   -984960.930
10 0 59266  68262.000000  0    6684468.229  -1667553.601    -83153.660
10 0 59266  68382.000000  0    6590948.991  -1827443.272    820116.084
10 0 59266  68502.000000  0    6379722.530  -1952720.882   1708947.365
10 0 59266  68622.000000  0    6055095.874  -2039165.587   2567684.960
10 0 59266  68742.000000  0    5623447.825  -2083334.771   3381204.439
10 0 59266  68862.000000  0    5093097.397  -2082659.365   4135185.469
10 0 59266  68982.000000  0    4474135.193  -2035520.338   4816367.278
10 0 59266  69102.000000  0    3778223.754  -1941303.912   5412783.034
10 0 59266  69222.000000  0    3018368.855  -1800435.709   5913970.063
10 0 59266  69342.000000  0    2208667.599  -1614391.955   6311148.733
10 0 59266  69462.000000  0    1364041.466  -1385688.685   6597370.457
10 0 59266  69582.000000  0     499957.320  -1117848.825   6767633.692
10 0 59266  69702.000000  0    -367857.825   -815347.165   6818965.664
99
